NORAD_CAT_ID,OBJECT_NAME,OBJECT_TYPE,EPOCH,MEAN_MOTION,ECCENTRICITY,INCLINATION,RA_OF_ASC_NODE,ARG_OF_PERICENTER,MEAN_ANOMALY,BSTAR,MEAN_MOTION_DOT,MEAN_MOTION_DDOT,TLE_LINE0,TLE_LINE1,TLE_LINE2,SEMIMAJOR_AXIS,PERIOD,APOGEE,PERIGEE,DECAYED
53799.0,STARLINK-4710,PAYLOAD,2024-05-09 20:27:28,15.08798786,0.0001055,53.2187,26.7208,90.6627,269.4486,-0.00053483,-8.78e-05,0.0,0 STARLINK-4710,1 53799U 22111AC  24130.85240909 -.00008780  00000-0 -53483-3 0  9998,2 53799  53.2187  26.7208 0001055  90.6627 269.4486 15.08798786 92039,6918.006,95.44,540.601,539.142,0.0
53799.0,STARLINK-4710,PAYLOAD,2024-05-09 22:02:51,15.08805113,0.0001314,53.2182,26.4224,94.2661,265.8481,-0.00045544,-7.522e-05,0.0,0 STARLINK-4710,1 53799U 22111AC  24130.91864702 -.00007522  00000-0 -45544-3 0  9990,2 53799  53.2182  26.4224 0001314  94.2661 265.8481 15.08805113 92853,6917.987,95.44,540.761,538.943,0.0
53799.0,STARLINK-4710,PAYLOAD,2024-05-10 02:49:00,15.08827722,0.0001418,53.2173,25.5288,127.9559,232.1562,0.00089293,0.00013947,0.0,0 STARLINK-4710,1 53799U 22111AC  24131.11736556  .00013947  00000-0  89293-3 0  9993,2 53799  53.2173  25.5288 0001418 127.9559 232.1562 15.08827722 92079,6917.918,95.438,540.764,538.802,0.0
53799.0,STARLINK-4710,PAYLOAD,2024-05-10 20:18:14,15.0890567,7.96e-05,53.2176,22.259,98.4853,261.6229,0.0043565,0.00069859,0.0,0 STARLINK-4710,1 53799U 22111AC  24131.84600176  .00069859  00000-0  43565-2 0  9995,2 53799  53.2176  22.2590 0000796  98.4853 261.6229 15.08905670 92187,6917.68,95.433,540.095,538.994,0.0
53799.0,STARLINK-4710,PAYLOAD,2024-05-10 21:53:37,15.08925515,9.26e-05,53.2174,21.9598,97.6486,262.4611,0.0051428,0.00082715,0.0,0 STARLINK-4710,1 53799U 22111AC  24131.91223785  .00082715  00000-0  51428-2 0  9993,2 53799  53.2174  21.9598 0000926  97.6486 262.4611 15.08925515 93003,6917.619,95.432,540.125,538.843,0.0
53799.0,STARLINK-4710,PAYLOAD,2024-05-11 20:08:59,15.0882418,0.0001104,53.2179,17.797,105.6565,254.4549,0.0049065,0.00078637,0.0,0 STARLINK-4710,1 53799U 22111AC  24132.83957680  .00078637  00000-0  49065-2 0  9995,2 53799  53.2179  17.7970 0001104 105.6565 254.4549 15.08824180 92334,6917.929,95.439,540.557,539.03,0.0
53799.0,STARLINK-4710,PAYLOAD,2024-05-11 23:19:46,15.08777614,0.0001633,53.2186,17.2012,80.072,280.0456,0.0033258,0.00052949,0.0,0 STARLINK-4710,1 53799U 22111AC  24132.97207048  .00052949  00000-0  33258-2 0  9991,2 53799  53.2186  17.2012 0001633  80.0720 280.0456 15.08777614 93163,6918.071,95.442,541.066,538.806,0.0
53799.0,STARLINK-4710,PAYLOAD,2024-05-12 08:52:08,15.08708599,0.0001282,53.2179,15.4207,69.6646,290.4483,0.0029483,0.00046777,0.0,0 STARLINK-4710,1 53799U 22111AC  24133.36954856  .00046777  00000-0  29483-2 0  9998,2 53799  53.2179  15.4207 0001282  69.6646 290.4483 15.08708599 92419,6918.282,95.446,541.034,539.26,0.0
53799.0,STARLINK-4710,PAYLOAD,2024-05-12 21:35:15,15.08824273,0.0002112,53.2174,13.0403,55.6657,304.4535,0.0022922,0.00036366,0.0,0 STARLINK-4710,1 53799U 22111AC  24133.89948390  .00036366  00000-0  22922-2 0  9996,2 53799  53.2174  13.0403 0002112  55.6657 304.4535 15.08824273 92496,6917.928,95.439,541.255,538.332,0.0
53799.0,STARLINK-4710,PAYLOAD,2024-05-12 23:10:38,15.08860486,0.0001249,53.2171,12.7419,88.9157,271.1979,0.0019168,0.00030367,0.0,0 STARLINK-4710,1 53799U 22111AC  24133.96571904  .00030367  00000-0  19168-2 0  9990,2 53799  53.2171  12.7419 0001249  88.9157 271.1979 15.08860486 93310,6917.818,95.436,540.547,538.819,0.0
53799.0,STARLINK-4710,PAYLOAD,2024-05-13 02:21:24,15.08860194,0.0001254,53.217,12.148,93.9855,266.128,0.0013337,0.00021013,0.0,0 STARLINK-4710,1 53799U 22111AC  24134.09819734  .00021013  00000-0  13337-2 0  9991,2 53799  53.2170  12.1480 0001254  93.9855 266.1280 15.08860194 92525,6917.819,95.436,540.551,538.816,0.0
53799.0,STARLINK-4710,PAYLOAD,2024-05-13 08:42:56,15.08870903,0.0001393,53.2172,10.9599,103.0086,257.1062,0.0014242,0.0002247,0.0,0 STARLINK-4710,1 53799U 22111AC  24134.36315208  .00022470  00000-0  14242-2 0  9992,2 53799  53.2172  10.9599 0001393 103.0086 257.1062 15.08870903 93378,6917.786,95.436,540.615,538.687,0.0
53799.0,STARLINK-4710,PAYLOAD,2024-05-14 08:33:40,15.08905146,0.0002092,53.2168,6.4962,79.3783,280.7445,0.0008764,0.00013712,0.0,0 STARLINK-4710,1 53799U 22111AC  24135.35672098  .00013712  00000-0  87640-3 0  9997,2 53799  53.2168   6.4962 0002092  79.3783 280.7445 15.08905146 92715,6917.681,95.433,540.993,538.099,0.0
53799.0,STARLINK-4710,PAYLOAD,2024-05-14 14:55:13,15.08864374,0.0001135,53.217,5.3078,98.7674,261.3447,-0.00058662,-9.618e-05,0.0,0 STARLINK-4710,1 53799U 22111AC  24135.62168224 -.00009618  00000-0 -58662-3 0  9992,2 53799  53.2170   5.3078 0001135  98.7674 261.3447 15.08864374 93563,6917.806,95.436,540.456,538.886,0.0
53799.0,STARLINK-4710,PAYLOAD,2024-05-14 21:16:45,15.08869617,0.0001434,53.2173,4.1206,94.351,265.7646,-1.7528e-05,-5.67e-06,0.0,0 STARLINK-4710,1 53799U 22111AC  24135.88663458 -.00000567  00000-0 -17528-4 0  9990,2 53799  53.2173   4.1206 0001434  94.3510 265.7646 15.08869617 92797,6917.79,95.436,540.647,538.663,0.0
53799.0,STARLINK-4710,PAYLOAD,2024-05-14 22:52:08,15.08872604,0.0001344,53.2173,3.8234,92.8149,267.2997,0.00021252,3.099e-05,0.0,0 STARLINK-4710,1 53799U 22111AC  24135.95287282  .00003099  00000-0  21252-3 0  9994,2 53799  53.2173   3.8234 0001344  92.8149 267.2997 15.08872604 93613,6917.781,95.435,540.575,538.716,0.0
53799.0,STARLINK-4710,PAYLOAD,2024-05-15 08:24:26,15.08888361,0.0001684,53.2176,2.0389,59.5171,300.5987,0.0021525,0.00034181,0.0,0 STARLINK-4710,1 53799U 22111AC  24136.35030841  .00034181  00000-0  21525-2 0  9994,2 53799  53.2176   2.0389 0001684  59.5171 300.5987 15.08888361 92863,6917.733,95.434,540.763,538.433,0.0
53799.0,STARLINK-4710,PAYLOAD,2024-05-15 14:45:59,15.08836528,0.0001492,53.2173,0.8487,74.9149,285.2008,-9.2142e-05,-1.754e-05,0.0,0 STARLINK-4710,1 53799U 22111AC  24136.61527299 -.00001754  00000-0 -92142-4 0  9998,2 53799  53.2173   0.8487 0001492  74.9149 285.2008 15.08836528 93714,6917.891,95.438,540.788,538.724,0.0
53799.0,STARLINK-4710,PAYLOAD,2024-05-15 21:07:32,15.08841399,0.0001176,53.2161,359.6588,80.1676,279.9449,-1.4848e-05,-5.24e-06,0.0,0 STARLINK-4710,1 53799U 22111AC  24136.88023174 -.00000524  00000-0 -14848-4 0  9991,2 53799  53.2161 359.6588 0001176  80.1676 279.9449 15.08841399 92946,6917.876,95.437,540.555,538.928,0.0
53799.0,STARLINK-4710,PAYLOAD,2024-05-16 08:15:13,15.08863197,0.0001307,53.2171,357.578,71.4663,288.6471,0.0015049,0.00023759,0.0,0 STARLINK-4710,1 53799U 22111AC  24137.34391058  .00023759  00000-0  15049-2 0  9997,2 53799  53.2171 357.5780 0001307  71.4663 288.6471 15.08863197 93014,6917.809,95.436,540.579,538.77,0.0
53799.0,STARLINK-4710,PAYLOAD,2024-05-16 20:58:19,15.08849857,0.0001415,53.2172,355.1998,85.7573,274.3581,0.0019743,0.00031281,0.0,0 STARLINK-4710,1 53799U 22111AC  24137.87383509  .00031281  00000-0  19743-2 0  9991,2 53799  53.2172 355.1998 0001415  85.7573 274.3581 15.08849857 93907,6917.85,95.437,540.694,538.736,0.0
53799.0,STARLINK-4710,PAYLOAD,2024-05-17 00:09:05,15.08854668,0.0001306,53.2179,354.6038,89.7332,270.3809,0.0021338,0.00033848,0.0,0 STARLINK-4710,1 53799U 22111AC  24138.00631441  .00033848  00000-0  21338-2 0  9992,2 53799  53.2179 354.6038 0001306  89.7332 270.3809 15.08854668 93117,6917.836,95.437,540.604,538.797,0.0
53799.0,STARLINK-4710,PAYLOAD,2024-05-17 08:06:00,15.08860795,0.0001438,53.2183,353.1164,89.8661,270.2496,0.001167,0.00018344,0.0,0 STARLINK-4710,1 53799U 22111AC  24138.33751091  .00018344  00000-0  11670-2 0  9994,2 53799  53.2183 353.1164 0001438  89.8661 270.2496 15.08860795 93162,6917.817,95.436,540.677,538.687,0.0
53799.0,STARLINK-4710,PAYLOAD,2024-05-17 20:49:07,15.08823957,0.0002022,53.2167,350.7385,93.7795,266.3428,0.0010249,0.00016054,0.0,0 STARLINK-4710,1 53799U 22111AC  24138.86744582  .00016054  00000-0  10249-2 0  9996,2 53799  53.2167 350.7385 0002022  93.7795 266.3428 15.08823957 93243,6917.929,95.439,541.193,538.396,0.0
53799.0,STARLINK-4710,PAYLOAD,2024-05-17 23:59:53,15.08815756,0.0001715,53.2182,350.1441,92.9142,267.2046,0.0015345,0.00024202,0.0,0 STARLINK-4710,1 53799U 22111AC  24138.99992889  .00024202  00000-0  15345-2 0  9991,2 53799  53.2182 350.1441 0001715  92.9142 267.2046 15.08815756 94078,6917.954,95.439,541.006,538.633,0.0
53799.0,STARLINK-4710,PAYLOAD,2024-05-18 20:39:54,15.08876201,0.0001347,53.2176,346.2768,80.0342,280.0802,0.001916,0.00030367,0.0,0 STARLINK-4710,1 53799U 22111AC  24139.86104247  .00030367  00000-0  19160-2 0  9999,2 53799  53.2176 346.2768 0001347  80.0342 280.0802 15.08876201 93399,6917.77,95.435,540.567,538.703,0.0
53799.0,STARLINK-4710,PAYLOAD,2024-05-19 14:09:05,15.08925063,9.31e-05,53.218,343.0074,119.5371,240.5714,0.0016209,0.00025663,0.0,0 STARLINK-4710,1 53799U 22111AC  24140.58964758  .00025663  00000-0  16209-2 0  9995,2 53799  53.2180 343.0074 0000931 119.5371 240.5714 15.08925063 94314,6917.62,95.432,540.129,538.841,0.0
53799.0,STARLINK-4710,PAYLOAD,2024-05-19 20:30:38,15.08835748,0.0001304,53.2178,341.8185,102.772,257.3418,-0.0013128,-0.00021118,0.0,0 STARLINK-4710,1 53799U 22111AC  24140.85460888 -.00021118  00000-0 -13128-2 0  9990,2 53799  53.2178 341.8185 0001304 102.7720 257.3418 15.08835748 93548,6917.893,95.438,540.66,538.856,0.0
53799.0,STARLINK-4710,PAYLOAD,2024-05-21 04:18:23,15.08816315,9.85e-05,53.2164,335.8707,102.6623,257.448,0.0006098,9.424e-05,0.0,0 STARLINK-4710,1 53799U 22111AC  24142.17944188  .00009424  00000-0  60980-3 0  9990,2 53799  53.2164 335.8707 0000985 102.6623 257.4480 15.08816315 93742,6917.953,95.439,540.499,539.136,0.0
53799.0,STARLINK-4710,PAYLOAD,2024-05-21 12:15:19,15.08818847,0.0001145,53.2167,334.3814,113.2942,246.8171,0.00046924,7.184e-05,0.0,0 STARLINK-4710,1 53799U 22111AC  24142.51064633  .00007184  00000-0  46924-3 0  9999,2 53799  53.2167 334.3814 0001145 113.2942 246.8171 15.08818847 94606,6917.945,95.439,540.602,539.018,0.0
